OCO 2                   
1 40059U 14035A   26116.79007133  .00000476  00000+0  11567-3 0  9996
2 40059  98.1989  58.8763 0001615  79.6635 280.4745 14.57146306628564
BRITE-PL2 (HEWELIUSZ)   
1 40119U 14049B   26116.81887962  .00001588  00000+0  15281-3 0  9999
2 40119  97.9036 228.4478 0012692 281.0348  78.9444 14.94397876633772
MMS 1                   
1 40482U 15011A   26116.91667823 -.00000573  00000+0  00000+0 0  9998
2 40482  71.4093 349.4904 8362004 166.3324 108.3672  0.28339059  1350
MMS 2                   
1 40483U 15011B   26116.83335647 -.00000584  00000+0  00000+0 0  9998
2 40483  71.4091 349.4933 8362674 166.3389  99.8503  0.28337761  1350
MMS 3                   
1 40484U 15011C   26116.83335647 -.00000584  00000+0  00000+0 0  9999
2 40484  71.4128 349.4975 8361791 166.3358  99.8422  0.28336301  1352
MMS 4                   
1 40485U 15011D   26116.83335647 -.00000584  00000+0  00000+0 0  9990
2 40485  71.4089 349.4933 8361459 166.3409  99.8397  0.28337707  1353
ASTROSAT                
1 40930U 15052A   26112.31982605  .00001425  00000+0  92060-4 0  9997
2 40930   5.9962 197.4550 0008405 315.1790  44.7659 14.82404932571525
DAMPE                   
1 41173U 15078A   26116.85217765  .00001508  00000+0  53463-4 0  9992
2 41173  97.4578 122.0703 0010250 257.6059 102.4034 15.30653282576697
PISAT                   
1 41784U 16059B   26116.71522774  .00001174  00000+0  20753-3 0  9998
2 41784  97.8188 119.3834 0029371  13.0689 347.1271 14.68887831512181
HXMT (HUIYAN)           
1 42758U 17034A   26116.81872468  .00004359  00000+0  21948-3 0  9998
2 42758  43.0129 108.9683 0031541 181.8947 178.1786 15.17999794489857
FLYING LAPTOP           
1 42831U 17042G   26116.85314734  .00004782  00000+0  37966-3 0  9997
2 42831  97.4460 274.4458 0018029 300.3418  59.6023 15.00817692478758
ZHANGHENG 1-01 (CSES-1) 
1 43194U 18015C   26116.81813747  .00010016  00000+0  45718-3 0  9996
2 43194  97.6827 281.4675 0017899  83.5104 276.8168 15.20669461456834
SALSAT                  
1 46495U 20068K   26116.45847697  .00009547  00000+0  34104-3 0  9999
2 46495  97.8864 116.4064 0011542 119.6725 240.5665 15.29015639307456
IXPE                    
1 49954U 21121A   26116.83335647  .00014195  00000+0  79667-3 0  9990
2 49954   0.2303 345.6999 0007320  24.0645  74.6354 15.09758292  5674
